{
  "type": "FeatureCollection",
  "features": [
    {
      "type": "Feature",
      "properties": {
        "norad_id": 41773,
        "name": "SKYSAT-C2",
        "group": "resource",
        "lat": 17.526568202672255,
        "lon": 17.767368730576298,
        "alt_km": 452.0260646814804,
        "timestamp": "2025-12-21T20:41:07.643108+00:00",
        "meta_object_name": "SKYSAT-C2",
        "meta_object_id": "2016-058D",
        "meta_epoch": "2025-12-21T14:21:38.666016",
        "meta_mean_motion": 15.37454642,
        "meta_eccentricity": 0.00032346,
        "meta_inclination": 97.0345,
        "meta_ra_of_asc_node": 19.7499,
        "meta_arg_of_pericenter": 8.9758,
        "meta_mean_anomaly": 351.1544,
        "meta_ephemeris_type": 0,
        "meta_classification_type": "U",
        "meta_norad_cat_id": 41773,
        "meta_element_set_no": 999,
        "meta_rev_at_epoch": 51772,
        "meta_bstar": 0.00025431987,
        "meta_mean_motion_dot": 9.266e-05,
        "meta_mean_motion_ddot": 0,
        "tle_line1": "1 41773U 16058D   25355.59836419  .00009266  00000+0  25432-3 0  9998",
        "tle_line2": "2 41773  97.0345  19.7499 0003234   8.9758 351.1544 15.37454642517726"
      },
      "geometry": {
        "type": "Point",
        "coordinates": [
          17.767368730576298,
          17.526568202672255
        ]
      }
    },
    {
      "type": "Feature",
      "properties": {
        "norad_id": 41774,
        "name": "SKYSAT-C3",
        "group": "resource",
        "lat": 79.3055410441394,
        "lon": -10.900855474753584,
        "alt_km": 423.6754489681098,
        "timestamp": "2025-12-21T20:41:07.643117+00:00",
        "meta_object_name": "SKYSAT-C3",
        "meta_object_id": "2016-058E",
        "meta_epoch": "2025-12-21T14:06:49.025088",
        "meta_mean_motion": 15.44688941,
        "meta_eccentricity": 0.00020322,
        "meta_inclination": 96.9286,
        "meta_ra_of_asc_node": 28.9231,
        "meta_arg_of_pericenter": 107.3638,
        "meta_mean_anomaly": 252.7834,
        "meta_ephemeris_type": 0,
        "meta_classification_type": "U",
        "meta_norad_cat_id": 41774,
        "meta_element_set_no": 999,
        "meta_rev_at_epoch": 51862,
        "meta_bstar": 0.00033448362,
        "meta_mean_motion_dot": 0.00015534,
        "meta_mean_motion_ddot": 0,
        "tle_line1": "1 41774U 16058E   25355.58806742  .00015534  00000+0  33448-3 0  9995",
        "tle_line2": "2 41774  96.9286  28.9231 0002032 107.3638 252.7834 15.44688941518628"
      },
      "geometry": {
        "type": "Point",
        "coordinates": [
          -10.900855474753584,
          79.3055410441394
        ]
      }
    },
    {
      "type": "Feature",
      "properties": {
        "norad_id": 41785,
        "name": "ALSAT 1B",
        "group": "resource",
        "lat": 80.4167972872645,
        "lon": -46.8189232003306,
        "alt_km": 639.4814133252521,
        "timestamp": "2025-12-21T20:41:07.643126+00:00",
        "meta_object_name": "ALSAT 1B",
        "meta_object_id": "2016-059C",
        "meta_epoch": "2025-12-21T13:46:43.725216",
        "meta_mean_motion": 14.72083777,
        "meta_eccentricity": 0.00107935,
        "meta_inclination": 97.7803,
        "meta_ra_of_asc_node": 6.9826,
        "meta_arg_of_pericenter": 78.5545,
        "meta_mean_anomaly": 281.6874,
        "meta_ephemeris_type": 0,
        "meta_classification_type": "U",
        "meta_norad_cat_id": 41785,
        "meta_element_set_no": 999,
        "meta_rev_at_epoch": 49444,
        "meta_bstar": 5.0912864e-05,
        "meta_mean_motion_dot": 2.73e-06,
        "meta_mean_motion_ddot": 0,
        "tle_line1": "1 41785U 16059C   25355.57411719  .00000273  00000+0  50913-4 0  9994",
        "tle_line2": "2 41785  97.7803   6.9826 0010793  78.5545 281.6874 14.72083777494443"
      },
      "geometry": {
        "type": "Point",
        "coordinates": [
          -46.8189232003306,
          80.4167972872645
        ]
      }
    },
    {
      "type": "Feature",
      "properties": {
        "norad_id": 41787,
        "name": "PATHFINDER 1",
        "group": "resource",
        "lat": 6.768632591490679,
        "lon": -2.7216522456514705,
        "alt_km": 657.1547078648355,
        "timestamp": "2025-12-21T20:41:07.643135+00:00",
        "meta_object_name": "PATHFINDER 1",
        "meta_object_id": "2016-059E",
        "meta_epoch": "2025-12-21T12:28:17.461920",
        "meta_mean_motion": 14.67335413,
        "meta_eccentricity": 0.00297956,
        "meta_inclination": 97.8136,
        "meta_ra_of_asc_node": 357.8858,
        "meta_arg_of_pericenter": 54.4562,
        "meta_mean_anomaly": 305.9415,
        "meta_ephemeris_type": 0,
        "meta_classification_type": "U",
        "meta_norad_cat_id": 41787,
        "meta_element_set_no": 999,
        "meta_rev_at_epoch": 49365,
        "meta_bstar": 0.00011888517,
        "meta_mean_motion_dot": 6.29e-06,
        "meta_mean_motion_ddot": 0,
        "tle_line1": "1 41787U 16059E   25355.51964655  .00000629  00000+0  11889-3 0  9995",
        "tle_line2": "2 41787  97.8136 357.8858 0029795  54.4562 305.9415 14.67335413493656"
      },
      "geometry": {
        "type": "Point",
        "coordinates": [
          -2.7216522456514705,
          6.768632591490679
        ]
      }
    },
    {
      "type": "Feature",
      "properties": {
        "norad_id": 41790,
        "name": "SCATSAT 1",
        "group": "resource",
        "lat": 20.233668807169234,
        "lon": 49.61957279174698,
        "alt_km": 624.6580502167599,
        "timestamp": "2025-12-21T20:41:07.643144+00:00",
        "meta_object_name": "SCATSAT 1",
        "meta_object_id": "2016-059H",
        "meta_epoch": "2025-12-21T14:05:53.997792",
        "meta_mean_motion": 14.78963145,
        "meta_eccentricity": 0.0056474,
        "meta_inclination": 98.1451,
        "meta_ra_of_asc_node": 52.3678,
        "meta_arg_of_pericenter": 100.1196,
        "meta_mean_anomaly": 260.6391,
        "meta_ephemeris_type": 0,
        "meta_classification_type": "U",
        "meta_norad_cat_id": 41790,
        "meta_element_set_no": 999,
        "meta_rev_at_epoch": 7533,
        "meta_bstar": 0.00015867516,
        "meta_mean_motion_dot": 1.146e-05,
        "meta_mean_motion_ddot": 0,
        "tle_line1": "1 41790U 16059H   25355.58743053  .00001146  00000+0  15868-3 0  9999",
        "tle_line2": "2 41790  98.1451  52.3678 0056474 100.1196 260.6391 14.78963145 75339"
      },
      "geometry": {
        "type": "Point",
        "coordinates": [
          49.61957279174698,
          20.233668807169234
        ]
      }
    },
    {
      "type": "Feature",
      "properties": {
        "norad_id": 41875,
        "name": "GOKTURK 1A",
        "group": "resource",
        "lat": -63.27519141352988,
        "lon": -95.3718260707661,
        "alt_km": 692.1441406803406,
        "timestamp": "2025-12-21T20:41:07.643153+00:00",
        "meta_object_name": "GOKTURK 1A",
        "meta_object_id": "2016-073A",
        "meta_epoch": "2025-12-21T14:24:46.827072",
        "meta_mean_motion": 14.62787866,
        "meta_eccentricity": 0.00012954,
        "meta_inclination": 98.1436,
        "meta_ra_of_asc_node": 247.8474,
        "meta_arg_of_pericenter": 83.2368,
        "meta_mean_anomaly": 276.8981,
        "meta_ephemeris_type": 0,
        "meta_classification_type": "U",
        "meta_norad_cat_id": 41875,
        "meta_element_set_no": 999,
        "meta_rev_at_epoch": 48286,
        "meta_bstar": 2.8103651e-05,
        "meta_mean_motion_dot": 9.7e-07,
        "meta_mean_motion_ddot": 0,
        "tle_line1": "1 41875U 16073A   25355.60054198  .00000097  00000+0  28104-4 0  9999",
        "tle_line2": "2 41875  98.1436 247.8474 0001295  83.2368 276.8981 14.62787866482865"
      },
      "geometry": {
        "type": "Point",
        "coordinates": [
          -95.3718260707661,
          -63.27519141352988
        ]
      }
    },
    {
      "type": "Feature",
      "properties": {
        "norad_id": 41877,
        "name": "RESOURCESAT-2A",
        "group": "resource",
        "lat": 72.08373384430818,
        "lon": 37.1258769169719,
        "alt_km": 813.7289721744728,
        "timestamp": "2025-12-21T20:41:07.643162+00:00",
        "meta_object_name": "RESOURCESAT-2A",
        "meta_object_id": "2016-074A",
        "meta_epoch": "2025-12-21T15:16:10.181280",
        "meta_mean_motion": 14.21603013,
        "meta_eccentricity": 0.0001409,
        "meta_inclination": 98.7751,
        "meta_ra_of_asc_node": 65.4407,
        "meta_arg_of_pericenter": 213.6952,
        "meta_mean_anomaly": 146.4135,
        "meta_ephemeris_type": 0,
        "meta_classification_type": "U",
        "meta_norad_cat_id": 41877,
        "meta_element_set_no": 999,
        "meta_rev_at_epoch": 46907,
        "meta_bstar": 7.2058108e-05,
        "meta_mean_motion_dot": 1.14e-06,
        "meta_mean_motion_ddot": 0,
        "tle_line1": "1 41877U 16074A   25355.63622895  .00000114  00000+0  72058-4 0  9997",
        "tle_line2": "2 41877  98.7751  65.4407 0001409 213.6952 146.4135 14.21603013469075"
      },
      "geometry": {
        "type": "Point",
        "coordinates": [
          37.1258769169719,
          72.08373384430818
        ]
      }
    }
  ]
}